STARLINK-2647_new
1 18658C 21044W   21326.17812501 -.00000093  00000-0 -62128-5 0  3263
2 18658  53.0562 322.9484 0001714  66.6054  64.7517 15.06392240    19
STARLINK-2647_old
1 28658C 21044W   21325.11252286 -.00009178  00000-0 -61479-3 0  3252
2 28658  53.0559 327.7321 0001802  68.1956  41.1341 15.06417166    13
